start=new Date('2022-05-18T00:00:00.000Z').valueOf();
sats=[{"LAUNCH_DATE":"2021-03-11","NORAD_CAT_ID":"47795","RCS_SIZE":"LARGE","PERIOD":"95.593","ECCENTRICITY":"0.00014010","COUNTRY_CODE":"US","MEAN_ELEMENT_THEORY":"SGP4","OBJECT_ID":"2021-018J","MEAN_MOTION_DOT":"0.00000263","ELEMENT_SET_NO":"999","BSTAR":"0.00003654500000","MEAN_MOTION_DDOT":"0.0000000000000","TIME_SYSTEM":"UTC","INCLINATION":"53.0569","FILE":"3450137","GP_ID":"203782283","CLASSIFICATION_TYPE":"U","OBJECT_NAME":"STARLINK-2347","APOAPSIS":"548.216","CENTER_NAME":"EARTH","MEAN_MOTION":"15.06389550","MEAN_ANOMALY":"292.6496","PERIAPSIS":"546.275","SEMIMAJOR_AXIS":"6925.381","RA_OF_ASC_NODE":"1.1719","TLE_LINE2":"2 47795  53.0569   1.1719 0001401  67.4641 292.6496 15.06389550 67109","REV_AT_EPOCH":"6710","OBJECT_TYPE":"PAYLOAD","SITE":"AFETR","ARG_OF_PERICENTER":"67.4641","REF_FRAME":"TEME","EPHEMERIS_TYPE":"0","TLE_LINE1":"1 47795U 21018J   22137.55285961  .00000263  00000-0  36545-4 0  9998","DECAY_DATE":null,"EPOCH":"2022-05-17T13:16:07.070304"},{"COUNTRY_CODE":"US","ECCENTRICITY":"0.00015450","RCS_SIZE":"LARGE","NORAD_CAT_ID":"47796","PERIOD":"95.592","LAUNCH_DATE":"2021-03-11","MEAN_MOTION_DDOT":"0.0000000000000","BSTAR":"-0.00003537700000","ELEMENT_SET_NO":"999","MEAN_MOTION_DOT":"-0.00000808","MEAN_ELEMENT_THEORY":"SGP4","OBJECT_ID":"2021-018K","TIME_SYSTEM":"UTC","INCLINATION":"53.0552","APOAPSIS":"548.287","CENTER_NAME":"EARTH","GP_ID":"203782042","CLASSIFICATION_TYPE":"U","OBJECT_NAME":"STARLINK-2373","FILE":"3450137","RA_OF_ASC_NODE":"2.5992","SEMIMAJOR_AXIS":"6925.352","MEAN_ANOMALY":"297.4585","PERIAPSIS":"546.147","MEAN_MOTION":"15.06398862","EPHEMERIS_TYPE":"0","REF_FRAME":"TEME","ARG_OF_PERICENTER":"62.6561","SITE":"AFETR","OBJECT_TYPE":"PAYLOAD","REV_AT_EPOCH":"6700","TLE_LINE2":"2 47796  53.0552   2.5992 0001545  62.6561 297.4585 15.06398862 67004","EPOCH":"2022-05-17T05:39:38.604672","DECAY_DATE":null,"TLE_LINE1":"1 47796U 21018K   22137.23586348 -.00000808  00000-0 -35377-4 0  9996"},{"INCLINATION":"53.0563","TIME_SYSTEM":"UTC","OBJECT_ID":"2021-018L","MEAN_ELEMENT_THEORY":"SGP4","MEAN_MOTION_DDOT":"0.0000000000000","BSTAR":"0.00023586000000","ELEMENT_SET_NO":"999","MEAN_MOTION_DOT":"0.00003234","COUNTRY_CODE":"US","ECCENTRICITY":"0.00015840","PERIOD":"95.592","RCS_SIZE":"LARGE","NORAD_CAT_ID":"47797","LAUNCH_DATE":"2021-03-11","TLE_LINE1":"1 47797U 21018L   22137.40495712  .00003234  00000-0  23586-3 0  9992","EPOCH":"2022-05-17T09:43:08.295168","DECAY_DATE":null,"OBJECT_TYPE":"PAYLOAD","REV_AT_EPOCH":"6667","TLE_LINE2":"2 47797  53.0563  26.8245 0001584  61.0721 299.0427 15.06407117 66670","EPHEMERIS_TYPE":"0","REF_FRAME":"TEME","SITE":"AFETR","ARG_OF_PERICENTER":"61.0721","PERIAPSIS":"546.095","MEAN_ANOMALY":"299.0427","MEAN_MOTION":"15.06407117","SEMIMAJOR_AXIS":"6925.327","RA_OF_ASC_NODE":"26.8245","OBJECT_NAME":"STARLINK-2377","GP_ID":"203783282","CLASSIFICATION_TYPE":"U","FILE":"3450137","APOAPSIS":"548.289","CENTER_NAME":"EARTH"},{"INCLINATION":"53.0568","TIME_SYSTEM":"UTC","ELEMENT_SET_NO":"999","BSTAR":"-0.00000610470000","MEAN_MOTION_DDOT":"0.0000000000000","MEAN_MOTION_DOT":"-0.00000373","MEAN_ELEMENT_THEORY":"SGP4","OBJECT_ID":"2021-018M","ECCENTRICITY":"0.00017280","COUNTRY_CODE":"US","LAUNCH_DATE":"2021-03-11","RCS_SIZE":"LARGE","PERIOD":"95.592","NORAD_CAT_ID":"47798","DECAY_DATE":null,"EPOCH":"2022-05-17T07:31:06.620448","TLE_LINE1":"1 47798U 21018M   22137.31327107 -.00000373  00000-0 -61047-5 0  9994","REF_FRAME":"TEME","EPHEMERIS_TYPE":"0","SITE":"AFETR","ARG_OF_PERICENTER":"60.6748","OBJECT_TYPE":"PAYLOAD","TLE_LINE2":"2 47798  53.0568   2.2524 0001728  60.6748 299.4414 15.06397100 67017","REV_AT_EPOCH":"6701","SEMIMAJOR_AXIS":"6925.357","RA_OF_ASC_NODE":"2.2524","MEAN_MOTION":"15.06397100","MEAN_ANOMALY":"299.4414","PERIAPSIS":"546.026","CENTER_NAME":"EARTH","APOAPSIS":"548.419","FILE":"3450137","CLASSIFICATION_TYPE":"U","GP_ID":"203783044","OBJECT_NAME":"STARLINK-2379"},{"TLE_LINE1":"1 47799U 21018N   22137.57497815 -.00001103  00000-0 -55175-4 0  9993","EPOCH":"2022-05-17T13:47:58.112160","DECAY_DATE":null,"OBJECT_TYPE":"PAYLOAD","REV_AT_EPOCH":"6704","TLE_LINE2":"2 47799  53.0545   1.0667 0001399  62.9182 297.1949 15.06389052 67047","EPHEMERIS_TYPE":"0","REF_FRAME":"TEME","ARG_OF_PERICENTER":"62.9182","SITE":"AFETR","MEAN_ANOMALY":"297.1949","PERIAPSIS":"546.278","MEAN_MOTION":"15.06389052","SEMIMAJOR_AXIS":"6925.382","RA_OF_ASC_NODE":"1.0667","GP_ID":"203781794","CLASSIFICATION_TYPE":"U","OBJECT_NAME":"STARLINK-2380","FILE":"3450137","CENTER_NAME":"EARTH","APOAPSIS":"548.216","TIME_SYSTEM":"UTC","INCLINATION":"53.0545","MEAN_ELEMENT_THEORY":"SGP4","OBJECT_ID":"2021-018N","MEAN_MOTION_DDOT":"0.0000000000000","BSTAR":"-0.00005517500000","ELEMENT_SET_NO":"999","MEAN_MOTION_DOT":"-0.00001103","COUNTRY_CODE":"US","ECCENTRICITY":"0.00013990","NORAD_CAT_ID":"47799","RCS_SIZE":"LARGE","PERIOD":"95.593","LAUNCH_DATE":"2021-03-11"},{"ECCENTRICITY":"0.00015120","COUNTRY_CODE":"US","LAUNCH_DATE":"2021-03-11","NORAD_CAT_ID":"47800","RCS_SIZE":"LARGE","PERIOD":"95.592","OBJECT_ID":"2021-018P","MEAN_ELEMENT_THEORY":"SGP4","ELEMENT_SET_NO":"999","BSTAR":"0.00025000000000","MEAN_MOTION_DDOT":"0.0000000000000","MEAN_MOTION_DOT":"0.00003444","TIME_SYSTEM":"UTC","INCLINATION":"53.0551","FILE":"3450333","CLASSIFICATION_TYPE":"U","GP_ID":"203790001","OBJECT_NAME":"STARLINK-2381","APOAPSIS":"548.253","CENTER_NAME":"EARTH","MEAN_MOTION":"15.06402398","MEAN_ANOMALY":"294.7319","PERIAPSIS":"546.159","SEMIMAJOR_AXIS":"6925.341","RA_OF_ASC_NODE":"0.3767","OBJECT_TYPE":"PAYLOAD","TLE_LINE2":"2 47800  53.0551   0.3767 0001512  65.3828 294.7319 15.06402398 66739","REV_AT_EPOCH":"6673","REF_FRAME":"TEME","EPHEMERIS_TYPE":"0","SITE":"AFETR","ARG_OF_PERICENTER":"65.3828","TLE_LINE1":"1 47800U 21018P   22137.72977699  .00003444  00000-0  25000-3 0  9997","DECAY_DATE":null,"EPOCH":"2022-05-17T17:30:52.731936"},{"TLE_LINE1":"1 47801U 21018Q   22137.36626118  .00002924  00000-0  21515-3 0  9994","EPOCH":"2022-05-17T08:47:24.965952","DECAY_DATE":null,"OBJECT_TYPE":"PAYLOAD","REV_AT_EPOCH":"6695","TLE_LINE2":"2 47801  53.0503   7.0835 0001709  65.3265 294.7902 15.06395524 66954","EPHEMERIS_TYPE":"0","REF_FRAME":"TEME","ARG_OF_PERICENTER":"65.3265","SITE":"AFETR","PERIAPSIS":"546.044","MEAN_ANOMALY":"294.7902","MEAN_MOTION":"15.06395524","SEMIMAJOR_AXIS":"6925.362","RA_OF_ASC_NODE":"7.0835","GP_ID":"203782794","CLASSIFICATION_TYPE":"U","OBJECT_NAME":"STARLINK-2382","FILE":"3450137","APOAPSIS":"548.411","CENTER_NAME":"EARTH","TIME_SYSTEM":"UTC","INCLINATION":"53.0503","OBJECT_ID":"2021-018Q","MEAN_ELEMENT_THEORY":"SGP4","MEAN_MOTION_DDOT":"0.0000000000000","BSTAR":"0.00021515000000","ELEMENT_SET_NO":"999","MEAN_MOTION_DOT":"0.00002924","COUNTRY_CODE":"US","ECCENTRICITY":"0.00017090","RCS_SIZE":"LARGE","NORAD_CAT_ID":"47801","PERIOD":"95.592","LAUNCH_DATE":"2021-03-11"},{"INCLINATION":"53.0554","TIME_SYSTEM":"UTC","MEAN_ELEMENT_THEORY":"SGP4","OBJECT_ID":"2021-018R","ELEMENT_SET_NO":"999","BSTAR":"0.00010322000000","MEAN_MOTION_DDOT":"0.0000000000000","MEAN_MOTION_DOT":"0.00001256","ECCENTRICITY":"0.00015660","COUNTRY_CODE":"US","LAUNCH_DATE":"2021-03-11","RCS_SIZE":"LARGE","PERIOD":"95.592","NORAD_CAT_ID":"47802","TLE_LINE1":"1 47802U 21018R   22137.41233280  .00001256  00000-0  10322-3 0  9996","DECAY_DATE":null,"EPOCH":"2022-05-17T09:53:45.553920","OBJECT_TYPE":"PAYLOAD","TLE_LINE2":"2 47802  53.0554  26.7869 0001566  68.8828 291.2328 15.06396009 66335","REV_AT_EPOCH":"6633","REF_FRAME":"TEME","EPHEMERIS_TYPE":"0","ARG_OF_PERICENTER":"68.8828","SITE":"AFETR","MEAN_MOTION":"15.06396009","PERIAPSIS":"546.141","MEAN_ANOMALY":"291.2328","RA_OF_ASC_NODE":"26.7869","SEMIMAJOR_AXIS":"6925.361","FILE":"3450355","GP_ID":"203790511","CLASSIFICATION_TYPE":"U","OBJECT_NAME":"STARLINK-2383","CENTER_NAME":"EARTH","APOAPSIS":"548.310"},{"INCLINATION":"53.0556","TIME_SYSTEM":"UTC","ECCENTRICITY":"0.00017160","COUNTRY_CODE":"US","LAUNCH_DATE":"2021-03-11","RCS_SIZE":"LARGE","PERIOD":"95.592","NORAD_CAT_ID":"47803","MEAN_ELEMENT_THEORY":"SGP4","OBJECT_ID":"2021-018S","ELEMENT_SET_NO":"999","MEAN_MOTION_DDOT":"0.0000000000000","BSTAR":"0.00000752620000","MEAN_MOTION_DOT":"-0.00000169","OBJECT_TYPE":"PAYLOAD","TLE_LINE2":"2 47803  53.0556   2.1142 0001716  58.6276 301.4880 15.06407867 67019","REV_AT_EPOCH":"6701","REF_FRAME":"TEME","EPHEMERIS_TYPE":"0","ARG_OF_PERICENTER":"58.6276","SITE":"AFETR","TLE_LINE1":"1 47803U 21018S   22137.34274881 -.00000169  00000-0  75262-5 0  9990","DECAY_DATE":null,"EPOCH":"2022-05-17T08:13:33.497184","FILE":"3450137","CLASSIFICATION_TYPE":"U","GP_ID":"203782284","OBJECT_NAME":"STARLINK-2384","APOAPSIS":"548.378","CENTER_NAME":"EARTH","MEAN_MOTION":"15.06407867","PERIAPSIS":"546.001","MEAN_ANOMALY":"301.4880","SEMIMAJOR_AXIS":"6925.324","RA_OF_ASC_NODE":"2.1142"},{"INCLINATION":"53.0560","TIME_SYSTEM":"UTC","ECCENTRICITY":"0.00014390","COUNTRY_CODE":"US","LAUNCH_DATE":"2021-03-11","PERIOD":"95.592","RCS_SIZE":"LARGE","NORAD_CAT_ID":"47804","MEAN_ELEMENT_THEORY":"SGP4","OBJECT_ID":"2021-018T","ELEMENT_SET_NO":"999","MEAN_MOTION_DDOT":"0.0000000000000","BSTAR":"-0.00007664400000","MEAN_MOTION_DOT":"-0.00001423","OBJECT_TYPE":"PAYLOAD","TLE_LINE2":"2 47804  53.0560   2.0511 0001439  68.4129 291.7013 15.06395819 66675","REV_AT_EPOCH":"6667","REF_FRAME":"TEME","EPHEMERIS_TYPE":"0","SITE":"AFETR","ARG_OF_PERICENTER":"68.4129","TLE_LINE1":"1 47804U 21018T   22137.35749978 -.00001423  00000-0 -76644-4 0  9995","DECAY_DATE":null,"EPOCH":"2022-05-17T08:34:47.980992","FILE":"3450233","CLASSIFICATION_TYPE":"U","GP_ID":"203787631","OBJECT_NAME":"STARLINK-2385","CENTER_NAME":"EARTH","APOAPSIS":"548.223","MEAN_MOTION":"15.06395819","MEAN_ANOMALY":"291.7013","PERIAPSIS":"546.230","RA_OF_ASC_NODE":"2.0511","SEMIMAJOR_AXIS":"6925.361"}];
